{"type": "FeatureCollection", "features": [ {"type": "Feature", "properties": {"norad_id": 40664, "name": "SKY MEXICO-1", "group": "intelsat", "lat": -0.034598005911034915, "lon": -158.10908881247633, "alt_km": 35781.34313698204, "timestamp": "2025-12-03T13:52:09.233443+00:00", "meta": {"OBJECT_NAME": "SKY MEXICO-1", "OBJECT_ID": "2015-026B", "EPOCH": "2025-12-03T06:31:58.361664", "MEAN_MOTION": 1.00270575, "ECCENTRICITY": 0.00027593, "INCLINATION": 0.0166, "RA_OF_ASC_NODE": 330.8561, "ARG_OF_PERICENTER": 295.2689, "MEAN_ANOMALY": 185.4744, "EPHEMERIS_TYPE": 0, "CLASSIFICATION_TYPE": "U", "NORAD_CAT_ID": 40664, "ELEMENT_SET_NO": 999, "REV_AT_EPOCH": 3849, "BSTAR": 0, "MEAN_MOTION_DOT": -2.16e-06, "MEAN_MOTION_DDOT": 0}, "tle": {"line1": "1 40664U 15026B   25337.27220326 -.00000216  00000+0  00000+0 0  9996", "line2": "2 40664   0.0166 330.8561 0002759 295.2689 185.4744  1.00270575 38499"}}, "geometry": {"type": "Point", "coordinates": [-158.10908881247633, -0.034598005911034915]}}, {"type": "Feature", "properties": {"norad_id": 40874, "name": "INTELSAT 34 (IS-34)", "group": "intelsat", "lat": -0.037575078011656916, "lon": -134.81568505253256, "alt_km": 35785.23406392777, "timestamp": "2025-12-03T13:52:09.233454+00:00", "meta": {"OBJECT_NAME": "INTELSAT 34 (IS-34)", "OBJECT_ID": "2015-039A", "EPOCH": "2025-12-03T06:38:35.228832", "MEAN_MOTION": 1.00270303, "ECCENTRICITY": 5.656e-05, "INCLINATION": 0.0134, "RA_OF_ASC_NODE": 301.5187, "ARG_OF_PERICENTER": 226.9151, "MEAN_ANOMALY": 308.0835, "EPHEMERIS_TYPE": 0, "CLASSIFICATION_TYPE": "U", "NORAD_CAT_ID": 40874, "ELEMENT_SET_NO": 999, "REV_AT_EPOCH": 3766, "BSTAR": 0, "MEAN_MOTION_DOT": -2.67e-06, "MEAN_MOTION_DDOT": 0}, "tle": {"line1": "1 40874U 15039A   25337.27679663 -.00000267  00000+0  00000+0 0  9991", "line2": "2 40874   0.0134 301.5187 0000565 226.9151 308.0835  1.00270303 37665"}}, "geometry": {"type": "Point", "coordinates": [-134.81568505253256, -0.037575078011656916]}}, {"type": "Feature", "properties": {"norad_id": 41581, "name": "INTELSAT 31 (IS-31)", "group": "intelsat", "lat": -0.028627188702468505, "lon": -174.39604376115605, "alt_km": 35780.181524805834, "timestamp": "2025-12-03T13:52:09.233466+00:00", "meta": {"OBJECT_NAME": "INTELSAT 31 (IS-31)", "OBJECT_ID": "2016-035A", "EPOCH": "2025-12-02T09:32:38.891904", "MEAN_MOTION": 1.00269687, "ECCENTRICITY": 0.00019053, "INCLINATION": 0.0144, "RA_OF_ASC_NODE": 272.373, "ARG_OF_PERICENTER": 308.7593, "MEAN_ANOMALY": 258.4788, "EPHEMERIS_TYPE": 0, "CLASSIFICATION_TYPE": "U", "NORAD_CAT_ID": 41581, "ELEMENT_SET_NO": 999, "REV_AT_EPOCH": 3471, "BSTAR": 0, "MEAN_MOTION_DOT": -1.3e-06, "MEAN_MOTION_DDOT": 0}, "tle": {"line1": "1 41581U 16035A   25336.39767236 -.00000130  00000+0  00000+0 0  9999", "line2": "2 41581   0.0144 272.3730 0001905 308.7593 258.4788  1.00269687 34710"}}, "geometry": {"type": "Point", "coordinates": [-174.39604376115605, -0.028627188702468505]}}, {"type": "Feature", "properties": {"norad_id": 41747, "name": "INTELSAT 36 (IS-36)", "group": "intelsat", "lat": 0.008442809225056797, "lon": -10.805793400808124, "alt_km": 35781.54441512263, "timestamp": "2025-12-03T13:52:09.233477+00:00", "meta": {"OBJECT_NAME": "INTELSAT 36 (IS-36)", "OBJECT_ID": "2016-053A", "EPOCH": "2025-12-03T00:23:05.477568", "MEAN_MOTION": 1.00270226, "ECCENTRICITY": 0.00013731, "INCLINATION": 0.0123, "RA_OF_ASC_NODE": 348.519, "ARG_OF_PERICENTER": 330.1213, "MEAN_ANOMALY": 187.7546, "EPHEMERIS_TYPE": 0, "CLASSIFICATION_TYPE": "U", "NORAD_CAT_ID": 41747, "ELEMENT_SET_NO": 999, "REV_AT_EPOCH": 3398, "BSTAR": 0, "MEAN_MOTION_DOT": -5e-08, "MEAN_MOTION_DDOT": 0}, "tle": {"line1": "1 41747U 16053A   25337.01603562 -.00000005  00000+0  00000+0 0  9995", "line2": "2 41747   0.0123 348.5190 0001373 330.1213 187.7546  1.00270226 33989"}}, "geometry": {"type": "Point", "coordinates": [-10.805793400808124, 0.008442809225056797]}}, {"type": "Feature", "properties": {"norad_id": 41945, "name": "INTELSAT 32E (IS-32E)", "group": "intelsat", "lat": -0.016780752923702787, "lon": -122.49488144494762, "alt_km": 35786.99060733249, "timestamp": "2025-12-03T13:52:09.233489+00:00", "meta": {"OBJECT_NAME": "INTELSAT 32E (IS-32E)", "OBJECT_ID": "2017-007B", "EPOCH": "2025-12-03T06:42:04.893984", "MEAN_MOTION": 1.00269637, "ECCENTRICITY": 1.767e-05, "INCLINATION": 0.0289, "RA_OF_ASC_NODE": 67.5531, "ARG_OF_PERICENTER": 281.3283, "MEAN_ANOMALY": 140.8405, "EPHEMERIS_TYPE": 0, "CLASSIFICATION_TYPE": "U", "NORAD_CAT_ID": 41945, "ELEMENT_SET_NO": 999, "REV_AT_EPOCH": 3226, "BSTAR": 0, "MEAN_MOTION_DOT": -2.5e-06, "MEAN_MOTION_DDOT": 0}, "tle": {"line1": "1 41945U 17007B   25337.27922331 -.00000250  00000+0  00000+0 0  9993", "line2": "2 41945   0.0289  67.5531 0000176 281.3283 140.8405  1.00269637 32261"}}, "geometry": {"type": "Point", "coordinates": [-122.49488144494762, -0.016780752923702787]}}, {"type": "Feature", "properties": {"norad_id": 42818, "name": "INTELSAT 35E (IS-35E)", "group": "intelsat", "lat": -0.04272203975066461, "lon": -113.80289174186379, "alt_km": 35776.563618924345, "timestamp": "2025-12-03T13:52:09.233500+00:00", "meta": {"OBJECT_NAME": "INTELSAT 35E (IS-35E)", "OBJECT_ID": "2017-041A", "EPOCH": "2025-12-03T06:44:34.655424", "MEAN_MOTION": 1.002709, "ECCENTRICITY": 0.00023331, "INCLINATION": 0.0186, "RA_OF_ASC_NODE": 326.2867, "ARG_OF_PERICENTER": 287.6086, "MEAN_ANOMALY": 245.1448, "EPHEMERIS_TYPE": 0, "CLASSIFICATION_TYPE": "U", "NORAD_CAT_ID": 42818, "ELEMENT_SET_NO": 999, "REV_AT_EPOCH": 3085, "BSTAR": 0, "MEAN_MOTION_DOT": -2.19e-06, "MEAN_MOTION_DDOT": 0}, "tle": {"line1": "1 42818U 17041A   25337.28095666 -.00000219  00000+0  00000+0 0  9999", "line2": "2 42818   0.0186 326.2867 0002333 287.6086 245.1448  1.00270900 30855"}}, "geometry": {"type": "Point", "coordinates": [-113.80289174186379, -0.04272203975066461]}}, {"type": "Feature", "properties": {"norad_id": 42950, "name": "INTELSAT 37E (IS-37E)", "group": "intelsat", "lat": -0.03227326382109088, "lon": -97.30318095322635, "alt_km": 35772.37257037746, "timestamp": "2025-12-03T13:52:09.233512+00:00", "meta": {"OBJECT_NAME": "INTELSAT 37E (IS-37E)", "OBJECT_ID": "2017-059A", "EPOCH": "2025-12-03T06:59:39.630624", "MEAN_MOTION": 1.00270828, "ECCENTRICITY": 0.00034344, "INCLINATION": 0.0159, "RA_OF_ASC_NODE": 312.1581, "ARG_OF_PERICENTER": 294.5148, "MEAN_ANOMALY": 272.6335, "EPHEMERIS_TYPE": 0, "CLASSIFICATION_TYPE": "U", "NORAD_CAT_ID": 42950, "ELEMENT_SET_NO": 999, "REV_AT_EPOCH": 3010, "BSTAR": 0, "MEAN_MOTION_DOT": -1.22e-06, "MEAN_MOTION_DDOT": 0}, "tle": {"line1": "1 42950U 17059A   25337.29143091 -.00000122  00000+0  00000+0 0  9995", "line2": "2 42950   0.0159 312.1581 0003434 294.5148 272.6335  1.00270828 30105"}}, "geometry": {"type": "Point", "coordinates": [-97.30318095322635, -0.03227326382109088]}}, {"type": "Feature", "properties": {"norad_id": 43632, "name": "AZERSPACE 2 (IS-38)", "group": "intelsat", "lat": -0.001569766628292198, "lon": -34.190693280706, "alt_km": 35783.798709340124, "timestamp": "2025-12-03T13:52:09.233523+00:00", "meta": {"OBJECT_NAME": "AZERSPACE 2 (IS-38)", "OBJECT_ID": "2018-074A", "EPOCH": "2025-12-03T01:59:05.629920", "MEAN_MOTION": 1.00271401, "ECCENTRICITY": 0.00016897, "INCLINATION": 0.0147, "RA_OF_ASC_NODE": 335.5882, "ARG_OF_PERICENTER": 279.2754, "MEAN_ANOMALY": 252.1998, "EPHEMERIS_TYPE": 0, "CLASSIFICATION_TYPE": "U", "NORAD_CAT_ID": 43632, "ELEMENT_SET_NO": 999, "REV_AT_EPOCH": 2648, "BSTAR": 0, "MEAN_MOTION_DOT": 1.56e-06, "MEAN_MOTION_DDOT": 0}, "tle": {"line1": "1 43632U 18074A   25337.08270405  .00000156  00000+0  00000+0 0  9994", "line2": "2 43632   0.0147 335.5882 0001689 279.2754 252.1998  1.00271401 26488"}}, "geometry": {"type": "Point", "coordinates": [-34.190693280706, -0.001569766628292198]}}, {"type": "Feature", "properties": {"norad_id": 43633, "name": "HORIZONS-3E", "group": "intelsat", "lat": 0.0008131766953044403, "lon": 89.70090137132522, "alt_km": 35791.23360788751, "timestamp": "2025-12-03T13:52:09.233535+00:00", "meta": {"OBJECT_NAME": "HORIZONS-3E", "OBJECT_ID": "2018-074B", "EPOCH": "2025-12-02T09:32:38.562720", "MEAN_MOTION": 1.00268601, "ECCENTRICITY": 0.00010808, "INCLINATION": 0.0303, "RA_OF_ASC_NODE": 208.778, "ARG_OF_PERICENTER": 80.6678, "MEAN_ANOMALY": 94.2479, "EPHEMERIS_TYPE": 0, "CLASSIFICATION_TYPE": "U", "NORAD_CAT_ID": 43633, "ELEMENT_SET_NO": 999, "REV_AT_EPOCH": 2636, "BSTAR": 0, "MEAN_MOTION_DOT": -1e-07, "MEAN_MOTION_DDOT": 0}, "tle": {"line1": "1 43633U 18074B   25336.39766855 -.00000010  00000+0  00000+0 0  9997", "line2": "2 43633   0.0303 208.7780 0001080  80.6678  94.2479  1.00268601 26369"}}, "geometry": {"type": "Point", "coordinates": [89.70090137132522, 0.0008131766953044403]}}, {"type": "Feature", "properties": {"norad_id": 44333, "name": "AT&T T-16", "group": "intelsat", "lat": 0.001920757544615506, "lon": 179.81749370725655, "alt_km": 35785.05584131058, "timestamp": "2025-12-03T13:52:09.233547+00:00", "meta": {"OBJECT_NAME": "AT&T T-16", "OBJECT_ID": "2019-034A", "EPOCH": "2025-12-03T06:48:38.769120", "MEAN_MOTION": 1.00268518, "ECCENTRICITY": 4.845e-05, "INCLINATION": 0.0315, "RA_OF_ASC_NODE": 72.5992, "ARG_OF_PERICENTER": 90.9112, "MEAN_ANOMALY": 270.1672, "EPHEMERIS_TYPE": 0, "CLASSIFICATION_TYPE": "U", "NORAD_CAT_ID": 44333, "ELEMENT_SET_NO": 999, "REV_AT_EPOCH": 2366, "BSTAR": 0, "MEAN_MOTION_DOT": -9.6e-07, "MEAN_MOTION_DDOT": 0}, "tle": {"line1": "1 44333U 19034A   25337.28378205 -.00000096  00000+0  00000+0 0  9993", "line2": "2 44333   0.0315  72.5992 0000484  90.9112 270.1672  1.00268518 23663"}}, "geometry": {"type": "Point", "coordinates": [179.81749370725655, 0.001920757544615506]}}]}